STARLINK-1221_new
1 15227C 20012BB  21326.16909054  .00009845  00000-0  65965-3 0  3267
2 15227  53.0515 207.9908 0002117  69.2131 345.5757 15.06388217    17
STARLINK-1221_old
1 25227C 20012BB  21325.12690039  .00029217  00000-0  19587-2 0  3254
2 25227  53.0532 212.6611 0002172  66.9662  92.9175 15.06347343    16
